KUIPER-00165            
1 65778U 25217S   25351.33339120 -.01140362  00000+0 -63363-1 0  9990
2 65778  51.8843  43.5271 0005274  32.1092 264.6653 15.16090596  2737
KUIPER-00166            
1 65779U 25217T   25351.31933139  .00030511  00000+0  78219-3 0  9998
2 65779  51.8714  41.9336 0003850   0.1567 359.9421 15.39093505 12751
KUIPER-00167            
1 65780U 25217U   25351.33339120 -.00051912  00000+0 -58904-2 0  9990
2 65780  51.8986  49.8382 0011383   6.4997 355.9412 14.86016493  1305
KUIPER-00168            
1 65781U 25217V   25351.16383737  .00038745  00000+0  10324-2 0  9996
2 65781  51.8716  42.4048 0001064  24.7223 335.3815 15.37792694 12734
KUIPER-00169            
1 65782U 25217W   25351.33339120 -.01656640  00000+0 -68062-1 0  9997
2 65782  51.8770  42.4455 0004831  18.2712 153.4700 15.26942646  4064
KUIPER-00170            
1 65783U 25217X   25351.33339120 -.01133584  00000+0 -71436-1 0  9994
2 65783  51.8874  44.8898 0007678  23.6368  34.7796 15.11602825  4787
KUIPER-00171            
1 65784U 25217Y   25351.31539421  .00188445  00000+0  14606-2 0  9999
2 65784  51.8580  32.9567 0011259  25.5523 334.6032 15.70646573 12874
KUIPER-00172            
1 65785U 25217Z   25351.33339120 -.00011438  00000+0 -37684-3 0  9997
2 65785  51.8759  41.8553 0005697  24.7675  44.4730 15.29955846  5766
KUIPER-00173            
1 65786U 25217AA  25351.33339120 -.00025354  00000+0 -10478-2 0  9991
2 65786  51.8781  42.5927 0002242 331.5120  80.1026 15.23172686  5359
KUIPER-00174            
1 65787U 25217AB  25351.30015819 -.00363080  00000+0 -10152-1 0  9994
2 65787  51.8739  41.8146 0005097 337.8835  22.1932 15.37562583 12759
KUIPER-00176            
1 65788U 25217AC  25351.33339120 -.00047229  00000+0 -46927-2 0  9996
2 65788  51.8960  47.8293 0004582 356.2547 295.4445 14.91363013  5468
KUIPER-00101            
1 65947U 25228A   25351.33339120 -.00155096  00000+0 -17763-1 0  9992
2 65947  51.9246   5.0141 0003954  41.3637 320.7481 14.86420782  5468
KUIPER-00113            
1 65948U 25228B   25351.33339120 -.00055284  00000+0 -39554-2 0  9994
2 65948  51.8889   1.6780 0005512  46.2384  36.6905 15.04095685  4977
KUIPER-00117            
1 65949U 25228C   25351.33339120 -.00026009  00000+0 -23751-2 0  9990
2 65949  51.8958   3.0752 0010115  47.4359  50.5161 14.94366003  5186
KUIPER-00121            
1 65950U 25228D   25351.33339120 -.00923343  00000+0 -47537-1 0  9996
2 65950  51.8817   0.0451 0006781  47.9030 215.1368 15.18582455  1306
KUIPER-00122            
1 65951U 25228E   25351.33339120 -.00040007  00000+0 -49853-2 0  9998
2 65951  51.8997   7.2632 0001761 101.3744 223.1529 14.82089758  3854
KUIPER-00123            
1 65952U 25228F   25351.33339120 -.00037184  00000+0 -46964-2 0  9991
2 65952  51.8996   7.2747 0000690 338.9221 171.8958 14.81495602  4392
KUIPER-00124            
1 65953U 25228G   25351.33339120 -.00054191  00000+0 -39844-2 0  9998
2 65953  51.8933   0.8390 0006272  33.5194 215.3130 15.03060624  5806
KUIPER-00125            
1 65954U 25228H   25351.32643251  .00026622  00000+0  73851-3 0  9994
2 65954  51.8800 358.2924 0006782  33.9071 326.2348 15.36716952 11120
KUIPER-00126            
1 65955U 25228J   25351.33339120 -.00769852  00000+0 -92353-1 0  9990
2 65955  51.8995   5.0390 0006177  55.5571 132.5873 14.86430654  1736
KUIPER-00127            
1 65956U 25228K   25351.33339120 -.00059711  00000+0 -48717-2 0  9993
2 65956  51.8957   2.8636 0007268  67.8174 264.9222 14.99155146  5477
KUIPER-00128            
1 65957U 25228L   25351.33339120 -.01795553  00000+0 -11116+0 0  9996
2 65957  51.8851 359.9635 0004055  50.0586 183.2584 15.12698531  5445
KUIPER-00129            
1 65958U 25228M   25351.33339120 -.00696833  00000+0 -25964-1 0  9995
2 65958  51.8826 358.4009 0005389  19.0225 321.9367 15.29481663  3557
KUIPER-00130            
1 65959U 25228N   25351.33339120 -.00967788  00000+0 -44643-1 0  9991
2 65959  51.8842 359.1570 0007078  42.6858 288.3780 15.22441360  3770
KUIPER-00134            
1 65960U 25228P   25350.75731775  .00022765  00000+0  65122-3 0  9992
2 65960  51.8789   1.2216 0007403  30.2740 329.8673 15.35845326 11033
KUIPER-00135            
1 65961U 25228Q   25351.33339120 -.00466732  00000+0 -23024-1 0  9997
2 65961  51.8912 359.3402 0007011  33.2759 168.3835 15.19577740  5677
KUIPER-00136            
1 65962U 25228R   25351.33339120 -.00044086  00000+0 -15587-2 0  9998
2 65962  51.8845 358.5402 0006281  39.4728 208.0227 15.28582827  1301
KUIPER-00137            
1 65963U 25228S   25351.27716365  .00020827  00000+0  59404-3 0  9994
2 65963  51.8821 358.7218 0006923  45.8348 314.3207 15.35996737 11111
KUIPER-00138            
1 65964U 25228T   25351.28099716  .00018322  00000+0  52231-3 0  9998
2 65964  51.8801 358.7359 0008269  45.1160 315.0496 15.36093073 11116
KUIPER-00140            
1 65965U 25228U   25351.29224224  .00025637  00000+0  74468-3 0  9997
2 65965  51.8821 358.8151 0008293  41.7912 318.3706 15.35288201 11112
KUIPER-00141            
1 65966U 25228V   25351.32589646  .00031687  00000+0  87787-3 0  9994
2 65966  51.8799 358.2913 0006227  37.9891 322.1534 15.36668185 11122
KUIPER-00146            
1 65967U 25228W   25351.27396534  .00018625  00000+0  53400-3 0  9993
2 65967  51.8809 358.7020 0007810  37.6163 322.5368 15.35905784 11113
KUIPER-00149            
1 65968U 25228X   25351.32478168  .00025449  00000+0  71963-3 0  9990
2 65968  51.8806 358.2872 0005308  36.2247 323.9098 15.36152028 11121
KUIPER-00154            
1 65969U 25228Y   25351.32926616  .00019931  00000+0  56722-3 0  9992
2 65969  51.8800 358.3150 0006588  25.8336 334.2978 15.36097596 11120
KUIPER-00157            
1 65970U 25228Z   25350.75680214  .00024053  00000+0  68074-3 0  9995
2 65970  51.8818   1.2334 0007460  39.9602 320.1932 15.36147017 11039
